[{"OBJECT_NAME":"ESIAFI 1 (COMSTAR 4)","OBJECT_ID":"1981-018A","EPOCH":"2026-03-04T05:14:10.414176","MEAN_MOTION":1.00262227,"ECCENTRICITY":0.00040346,"INCLINATION":8.9021,"RA_OF_ASC_NODE":311.8858,"ARG_OF_PERICENTER":47.8012,"MEAN_ANOMALY":312.196,"EPHEMERIS_TYPE":0,"CLASSIFICATION_TYPE":"U","NORAD_CAT_ID":12309,"ELEMENT_SET_NO":999,"REV_AT_EPOCH":16639,"BSTAR":0,"MEAN_MOTION_DOT":-7.4e-7,"MEAN_MOTION_DDOT":0},{"OBJECT_NAME":"SL-12 R/B(2)","OBJECT_ID":"1980-081F","EPOCH":"2026-03-04T21:09:38.671776","MEAN_MOTION":0.99978341,"ECCENTRICITY":0.00058647,"INCLINATION":6.424,"RA_OF_ASC_NODE":291.2037,"ARG_OF_PERICENTER":43.4961,"MEAN_ANOMALY":316.6149,"EPHEMERIS_TYPE":0,"CLASSIFICATION_TYPE":"U","NORAD_CAT_ID":12447,"ELEMENT_SET_NO":999,"REV_AT_EPOCH":16333,"BSTAR":0,"MEAN_MOTION_DOT":-8.9e-7,"MEAN_MOTION_DDOT":0},{"OBJECT_NAME":"GOES 5","OBJECT_ID":"1981-049A","EPOCH":"2026-03-05T05:01:01.951104","MEAN_MOTION":1.00211327,"ECCENTRICITY":0.00046559,"INCLINATION":9.5445,"RA_OF_ASC_NODE":316.3375,"ARG_OF_PERICENTER":337.1778,"MEAN_ANOMALY":215.8746,"EPHEMERIS_TYPE":0,"CLASSIFICATION_TYPE":"U","NORAD_CAT_ID":12472,"ELEMENT_SET_NO":999,"REV_AT_EPOCH":12180,"BSTAR":0,"MEAN_MOTION_DOT":-2.0e-6,"MEAN_MOTION_DDOT":0},{"OBJECT_NAME":"APPLE","OBJECT_ID":"1981-057B","EPOCH":"2026-03-05T01:44:35.785824","MEAN_MOTION":1.0003964,"ECCENTRICITY":0.00221545,"INCLINATION":7.2722,"RA_OF_ASC_NODE":297.6459,"ARG_OF_PERICENTER":229.9225,"MEAN_ANOMALY":323.8789,"EPHEMERIS_TYPE":0,"CLASSIFICATION_TYPE":"U","NORAD_CAT_ID":12545,"ELEMENT_SET_NO":999,"REV_AT_EPOCH":12134,"BSTAR":0,"MEAN_MOTION_DOT":-2.95e-6,"MEAN_MOTION_DDOT":0},{"OBJECT_NAME":"EKRAN 7","OBJECT_ID":"1981-061A","EPOCH":"2026-03-05T00:46:56.316000","MEAN_MOTION":1.0027158,"ECCENTRICITY":0.00062783,"INCLINATION":6.775,"RA_OF_ASC_NODE":293.9443,"ARG_OF_PERICENTER":44.4214,"MEAN_ANOMALY":296.2901,"EPHEMERIS_TYPE":0,"CLASSIFICATION_TYPE":"U","NORAD_CAT_ID":12564,"ELEMENT_SET_NO":999,"REV_AT_EPOCH":12846,"BSTAR":0,"MEAN_MOTION_DOT":-3.21e-6,"MEAN_MOTION_DDOT":0},{"OBJECT_NAME":"RADUGA 9","OBJECT_ID":"1981-069A","EPOCH":"2026-03-05T00:46:33.852000","MEAN_MOTION":1.0020728,"ECCENTRICITY":3.632e-5,"INCLINATION":6.8368,"RA_OF_ASC_NODE":294.4195,"ARG_OF_PERICENTER":63.9449,"MEAN_ANOMALY":275.0432,"EPHEMERIS_TYPE":0,"CLASSIFICATION_TYPE":"U","NORAD_CAT_ID":12618,"ELEMENT_SET_NO":999,"REV_AT_EPOCH":4629,"BSTAR":0,"MEAN_MOTION_DOT":-3.03e-6,"MEAN_MOTION_DDOT":0},{"OBJECT_NAME":"SBS 2","OBJECT_ID":"1981-096A","EPOCH":"2026-03-04T14:06:38.683008","MEAN_MOTION":1.00142513,"ECCENTRICITY":0.000511,"INCLINATION":10.4278,"RA_OF_ASC_NODE":322.1214,"ARG_OF_PERICENTER":268.9739,"MEAN_ANOMALY":268.8527,"EPHEMERIS_TYPE":0,"CLASSIFICATION_TYPE":"U","NORAD_CAT_ID":12855,"ELEMENT_SET_NO":999,"REV_AT_EPOCH":11756,"BSTAR":0,"MEAN_MOTION_DOT":-3.76e-6,"MEAN_MOTION_DDOT":0},{"OBJECT_NAME":"RADUGA 10","OBJECT_ID":"1981-102A","EPOCH":"2026-03-05T04:02:45.040704","MEAN_MOTION":1.00286224,"ECCENTRICITY":0.00029139,"INCLINATION":6.9511,"RA_OF_ASC_NODE":295.7013,"ARG_OF_PERICENTER":270.8164,"MEAN_ANOMALY":83.6609,"EPHEMERIS_TYPE":0,"CLASSIFICATION_TYPE":"U","NORAD_CAT_ID":12897,"ELEMENT_SET_NO":999,"REV_AT_EPOCH":11629,"BSTAR":0,"MEAN_MOTION_DOT":-2.8e-7,"MEAN_MOTION_DDOT":0},{"OBJECT_NAME":"SATCOM 3R","OBJECT_ID":"1981-114A","EPOCH":"2026-03-05T05:02:09.343104","MEAN_MOTION":1.00097503,"ECCENTRICITY":0.00063036,"INCLINATION":12.21,"RA_OF_ASC_NODE":332.6116,"ARG_OF_PERICENTER":327.5744,"MEAN_ANOMALY":213.3864,"EPHEMERIS_TYPE":0,"CLASSIFICATION_TYPE":"U","NORAD_CAT_ID":12967,"ELEMENT_SET_NO":999,"REV_AT_EPOCH":12702,"BSTAR":0,"MEAN_MOTION_DOT":-2.08e-6,"MEAN_MOTION_DDOT":0},{"OBJECT_NAME":"EKRAN 2 DEB","OBJECT_ID":"1977-092J","EPOCH":"2026-03-05T05:31:14.056320","MEAN_MOTION":1.0004887,"ECCENTRICITY":0.00152732,"INCLINATION":4.5731,"RA_OF_ASC_NODE":276.2521,"ARG_OF_PERICENTER":311.8294,"MEAN_ANOMALY":34.6153,"EPHEMERIS_TYPE":0,"CLASSIFICATION_TYPE":"U","NORAD_CAT_ID":12996,"ELEMENT_SET_NO":999,"REV_AT_EPOCH":8346,"BSTAR":0,"MEAN_MOTION_DOT":6.3e-7,"MEAN_MOTION_DDOT":0},{"OBJECT_NAME":"WESTAR 4","OBJECT_ID":"1982-014A","EPOCH":"2026-03-05T02:37:38.775648","MEAN_MOTION":0.99776959,"ECCENTRICITY":0.00058802,"INCLINATION":12.7448,"RA_OF_ASC_NODE":335.6846,"ARG_OF_PERICENTER":311.2628,"MEAN_ANOMALY":246.8303,"EPHEMERIS_TYPE":0,"CLASSIFICATION_TYPE":"U","NORAD_CAT_ID":13069,"ELEMENT_SET_NO":999,"REV_AT_EPOCH":4540,"BSTAR":0,"MEAN_MOTION_DOT":-2.73e-6,"MEAN_MOTION_DDOT":0},{"OBJECT_NAME":"INSAT-1A","OBJECT_ID":"1982-031A","EPOCH":"2026-03-04T21:37:55.535808","MEAN_MOTION":1.00365479,"ECCENTRICITY":0.00157214,"INCLINATION":7.3687,"RA_OF_ASC_NODE":299.2201,"ARG_OF_PERICENTER":53.4112,"MEAN_ANOMALY":218.438,"EPHEMERIS_TYPE":0,"CLASSIFICATION_TYPE":"U","NORAD_CAT_ID":13129,"ELEMENT_SET_NO":999,"REV_AT_EPOCH":16538,"BSTAR":0,"MEAN_MOTION_DOT":-2.12e-6,"MEAN_MOTION_DDOT":0},{"OBJECT_NAME":"COSMOS 1366","OBJECT_ID":"1982-044A","EPOCH":"2026-03-04T15:16:08.897376","MEAN_MOTION":1.00288862,"ECCENTRICITY":0.0007773,"INCLINATION":8.5387,"RA_OF_ASC_NODE":298.263,"ARG_OF_PERICENTER":111.0157,"MEAN_ANOMALY":58.0285,"EPHEMERIS_TYPE":0,"CLASSIFICATION_TYPE":"U","NORAD_CAT_ID":13177,"ELEMENT_SET_NO":999,"REV_AT_EPOCH":13256,"BSTAR":0,"MEAN_MOTION_DOT":-1.2e-6,"MEAN_MOTION_DDOT":0},{"OBJECT_NAME":"ANIK D1 (TELESAT 6)","OBJECT_ID":"1982-082A","EPOCH":"2026-03-04T13:24:38.537568","MEAN_MOTION":1.0014277,"ECCENTRICITY":0.0008365,"INCLINATION":12.3265,"RA_OF_ASC_NODE":333.6416,"ARG_OF_PERICENTER":340.4037,"MEAN_ANOMALY":202.4941,"EPHEMERIS_TYPE":0,"CLASSIFICATION_TYPE":"U","NORAD_CAT_ID":13431,"ELEMENT_SET_NO":999,"REV_AT_EPOCH":4555,"BSTAR":0,"MEAN_MOTION_DOT":-2.23e-6,"MEAN_MOTION_DDOT":0},{"OBJECT_NAME":"EKRAN 9","OBJECT_ID":"1982-093A","EPOCH":"2026-03-05T00:48:03.708000","MEAN_MOTION":1.002601,"ECCENTRICITY":0.00281383,"INCLINATION":7.319,"RA_OF_ASC_NODE":300.4172,"ARG_OF_PERICENTER":7.7803,"MEAN_ANOMALY":330.7974,"EPHEMERIS_TYPE":0,"CLASSIFICATION_TYPE":"U","NORAD_CAT_ID":13554,"ELEMENT_SET_NO":999,"REV_AT_EPOCH":11895,"BSTAR":0,"MEAN_MOTION_DOT":-3.43e-6,"MEAN_MOTION_DDOT":0},{"OBJECT_NAME":"GORIZONT 6","OBJECT_ID":"1982-103A","EPOCH":"2026-03-04T20:45:38.842560","MEAN_MOTION":1.00257964,"ECCENTRICITY":0.0003382,"INCLINATION":7.566,"RA_OF_ASC_NODE":302.6276,"ARG_OF_PERICENTER":353.1518,"MEAN_ANOMALY":7.4693,"EPHEMERIS_TYPE":0,"CLASSIFICATION_TYPE":"U","NORAD_CAT_ID":13624,"ELEMENT_SET_NO":999,"REV_AT_EPOCH":11990,"BSTAR":0,"MEAN_MOTION_DOT":7.9e-7,"MEAN_MOTION_DDOT":0},{"OBJECT_NAME":"SL-12 R/B(2)","OBJECT_ID":"1982-103E","EPOCH":"2026-03-04T23:17:55.591584","MEAN_MOTION":1.00359704,"ECCENTRICITY":0.00105729,"INCLINATION":7.526,"RA_OF_ASC_NODE":302.5049,"ARG_OF_PERICENTER":190.483,"MEAN_ANOMALY":146.4319,"EPHEMERIS_TYPE":0,"CLASSIFICATION_TYPE":"U","NORAD_CAT_ID":13630,"ELEMENT_SET_NO":999,"REV_AT_EPOCH":12045,"BSTAR":0,"MEAN_MOTION_DOT":-3.57e-6,"MEAN_MOTION_DDOT":0},{"OBJECT_NAME":"SATCOM C5","OBJECT_ID":"1982-105A","EPOCH":"2026-03-05T06:38:45.081888","MEAN_MOTION":1.00273056,"ECCENTRICITY":0.00062193,"INCLINATION":12.2157,"RA_OF_ASC_NODE":333.2016,"ARG_OF_PERICENTER":16.952,"MEAN_ANOMALY":166.3743,"EPHEMERIS_TYPE":0,"CLASSIFICATION_TYPE":"U","NORAD_CAT_ID":13631,"ELEMENT_SET_NO":999,"REV_AT_EPOCH":12533,"BSTAR":0,"MEAN_MOTION_DOT":-1.07e-6,"MEAN_MOTION_DDOT":0},{"OBJECT_NAME":"SBS 3","OBJECT_ID":"1982-110B","EPOCH":"2026-03-04T08:57:38.670336","MEAN_MOTION":0.99927424,"ECCENTRICITY":0.00047616,"INCLINATION":12.6132,"RA_OF_ASC_NODE":335.1054,"ARG_OF_PERICENTER":99.3016,"MEAN_ANOMALY":77.1807,"EPHEMERIS_TYPE":0,"CLASSIFICATION_TYPE":"U","NORAD_CAT_ID":13651,"ELEMENT_SET_NO":999,"REV_AT_EPOCH":4549,"BSTAR":0,"MEAN_MOTION_DOT":9.5e-7,"MEAN_MOTION_DDOT":0},{"OBJECT_NAME":"ANIK C3 (TELESAT 5)","OBJECT_ID":"1982-110C","EPOCH":"2026-03-04T15:58:37.517664","MEAN_MOTION":0.99900348,"ECCENTRICITY":0.0002323,"INCLINATION":12.5881,"RA_OF_ASC_NODE":334.9129,"ARG_OF_PERICENTER":346.0782,"MEAN_ANOMALY":183.5789,"EPHEMERIS_TYPE":0,"CLASSIFICATION_TYPE":"U","NORAD_CAT_ID":13652,"ELEMENT_SET_NO":999,"REV_AT_EPOCH":4546,"BSTAR":0,"MEAN_MOTION_DOT":-2.76e-6,"MEAN_MOTION_DDOT":0},{"OBJECT_NAME":"RADUGA 12","OBJECT_ID":"1983-028A","EPOCH":"2026-03-04T18:25:08.398848","MEAN_MOTION":1.00249327,"ECCENTRICITY":0.00029862,"INCLINATION":8.4116,"RA_OF_ASC_NODE":307.0119,"ARG_OF_PERICENTER":357.4394,"MEAN_ANOMALY":207.0111,"EPHEMERIS_TYPE":0,"CLASSIFICATION_TYPE":"U","NORAD_CAT_ID":13974,"ELEMENT_SET_NO":999,"REV_AT_EPOCH":16833,"BSTAR":0,"MEAN_MOTION_DOT":-8.0e-7,"MEAN_MOTION_DDOT":0},{"OBJECT_NAME":"SL-12 R/B(2)","OBJECT_ID":"1983-028F","EPOCH":"2026-03-05T05:17:38.772960","MEAN_MOTION":1.00034374,"ECCENTRICITY":0.00231004,"INCLINATION":8.4404,"RA_OF_ASC_NODE":307.0724,"ARG_OF_PERICENTER":223.1307,"MEAN_ANOMALY":129.0116,"EPHEMERIS_TYPE":0,"CLASSIFICATION_TYPE":"U","NORAD_CAT_ID":13983,"ELEMENT_SET_NO":999,"REV_AT_EPOCH":15676,"BSTAR":0,"MEAN_MOTION_DOT":8.2e-7,"MEAN_MOTION_DDOT":0},{"OBJECT_NAME":"SATCOM 1R","OBJECT_ID":"1983-030A","EPOCH":"2026-03-02T16:21:03.150144","MEAN_MOTION":0.99850506,"ECCENTRICITY":0.00039987,"INCLINATION":13.299,"RA_OF_ASC_NODE":339.2756,"ARG_OF_PERICENTER":111.6527,"MEAN_ANOMALY":64.961,"EPHEMERIS_TYPE":0,"CLASSIFICATION_TYPE":"U","NORAD_CAT_ID":13984,"ELEMENT_SET_NO":999,"REV_AT_EPOCH":12941,"BSTAR":0,"MEAN_MOTION_DOT":-3.21e-6,"MEAN_MOTION_DDOT":0},{"OBJECT_NAME":"GOES 6","OBJECT_ID":"1983-041A","EPOCH":"2026-03-05T06:37:45.178176","MEAN_MOTION":1.00217783,"ECCENTRICITY":0.00023434,"INCLINATION":10.3561,"RA_OF_ASC_NODE":321.8949,"ARG_OF_PERICENTER":307.0066,"MEAN_ANOMALY":243.8951,"EPHEMERIS_TYPE":0,"CLASSIFICATION_TYPE":"U","NORAD_CAT_ID":14050,"ELEMENT_SET_NO":999,"REV_AT_EPOCH":21497,"BSTAR":0,"MEAN_MOTION_DOT":-7.5e-7,"MEAN_MOTION_DDOT":0}]
